{
  "type": "FeatureCollection",
  "features": [
    {
      "type": "Feature",
      "properties": {
        "norad_id": 34070,
        "name": "COSMOS 2251 DEB",
        "group": "cosmos-2251-debris",
        "lat": 0.04837056614692572,
        "lon": 133.95124270050613,
        "alt_km": 648.2621672981159,
        "timestamp": "2025-12-03T17:47:51.111871+00:00",
        "meta_object_name": "COSMOS 2251 DEB",
        "meta_object_id": "1993-036KH",
        "meta_epoch": "2025-12-03T03:41:20.155200",
        "meta_mean_motion": 14.76452563,
        "meta_eccentricity": 0.00193125,
        "meta_inclination": 73.9994,
        "meta_ra_of_asc_node": 135.0909,
        "meta_arg_of_pericenter": 248.9889,
        "meta_mean_anomaly": 227.6427,
        "meta_ephemeris_type": 0,
        "meta_classification_type": "U",
        "meta_norad_cat_id": 34070,
        "meta_element_set_no": 999,
        "meta_rev_at_epoch": 88469,
        "meta_bstar": 0.0035058051,
        "meta_mean_motion_dot": 0.00024529,
        "meta_mean_motion_ddot": 0,
        "tle_line1": "1 34070U 93036KH  25337.15370550  .00024529  00000+0  35058-2 0  9995",
        "tle_line2": "2 34070  73.9994 135.0909 0019312 248.9889 227.6427 14.76452563884696"
      },
      "geometry": {
        "type": "Point",
        "coordinates": [
          133.95124270050613,
          0.04837056614692572
        ]
      }
    },
    {
      "type": "Feature",
      "properties": {
        "norad_id": 34114,
        "name": "COSMOS 2251 DEB",
        "group": "cosmos-2251-debris",
        "lat": 26.86639830741066,
        "lon": -127.44711951895869,
        "alt_km": 705.6716587681849,
        "timestamp": "2025-12-03T17:47:51.111882+00:00",
        "meta_object_name": "COSMOS 2251 DEB",
        "meta_object_id": "1993-036KK",
        "meta_epoch": "2025-12-03T07:32:34.249056",
        "meta_mean_motion": 14.56147398,
        "meta_eccentricity": 0.0047253,
        "meta_inclination": 74.0603,
        "meta_ra_of_asc_node": 61.6863,
        "meta_arg_of_pericenter": 60.0546,
        "meta_mean_anomaly": 12.3343,
        "meta_ephemeris_type": 0,
        "meta_classification_type": "U",
        "meta_norad_cat_id": 34114,
        "meta_element_set_no": 999,
        "meta_rev_at_epoch": 87664,
        "meta_bstar": 0.0024793,
        "meta_mean_motion_dot": 0.000111,
        "meta_mean_motion_ddot": 0,
        "tle_line1": "1 34114U 93036KK  25337.31428529  .00011100  00000+0  24793-2 0  9997",
        "tle_line2": "2 34114  74.0603  61.6863 0047253  60.0546  12.3343 14.56147398876642"
      },
      "geometry": {
        "type": "Point",
        "coordinates": [
          -127.44711951895869,
          26.86639830741066
        ]
      }
    },
    {
      "type": "Feature",
      "properties": {
        "norad_id": 34115,
        "name": "COSMOS 2251 DEB",
        "group": "cosmos-2251-debris",
        "lat": -53.59709376915898,
        "lon": 102.56918139784491,
        "alt_km": 655.6141944908968,
        "timestamp": "2025-12-03T17:47:51.111892+00:00",
        "meta_object_name": "COSMOS 2251 DEB",
        "meta_object_id": "1993-036KL",
        "meta_epoch": "2025-12-03T03:44:51.310752",
        "meta_mean_motion": 14.79235531,
        "meta_eccentricity": 0.00282156,
        "meta_inclination": 74.0075,
        "meta_ra_of_asc_node": 260.8326,
        "meta_arg_of_pericenter": 87.2081,
        "meta_mean_anomaly": 273.2324,
        "meta_ephemeris_type": 0,
        "meta_classification_type": "U",
        "meta_norad_cat_id": 34115,
        "meta_element_set_no": 999,
        "meta_rev_at_epoch": 89270,
        "meta_bstar": 0.0015591936,
        "meta_mean_motion_dot": 0.00011649,
        "meta_mean_motion_ddot": 0,
        "tle_line1": "1 34115U 93036KL  25337.15614943  .00011649  00000+0  15592-2 0  9992",
        "tle_line2": "2 34115  74.0075 260.8326 0028215  87.2081 273.2324 14.79235531892709"
      },
      "geometry": {
        "type": "Point",
        "coordinates": [
          102.56918139784491,
          -53.59709376915898
        ]
      }
    },
    {
      "type": "Feature",
      "properties": {
        "norad_id": 34116,
        "name": "COSMOS 2251 DEB",
        "group": "cosmos-2251-debris",
        "lat": -23.2430862224668,
        "lon": -167.31208835509764,
        "alt_km": 716.9749497935445,
        "timestamp": "2025-12-03T17:47:51.111904+00:00",
        "meta_object_name": "COSMOS 2251 DEB",
        "meta_object_id": "1993-036KM",
        "meta_epoch": "2025-12-03T02:07:23.121120",
        "meta_mean_motion": 14.52886255,
        "meta_eccentricity": 0.00122989,
        "meta_inclination": 74.0406,
        "meta_ra_of_asc_node": 200.979,
        "meta_arg_of_pericenter": 277.0963,
        "meta_mean_anomaly": 244.07,
        "meta_ephemeris_type": 0,
        "meta_classification_type": "U",
        "meta_norad_cat_id": 34116,
        "meta_element_set_no": 999,
        "meta_rev_at_epoch": 88346,
        "meta_bstar": 0.00093561952,
        "meta_mean_motion_dot": 3.829e-05,
        "meta_mean_motion_ddot": 0,
        "tle_line1": "1 34116U 93036KM  25337.08846205  .00003829  00000+0  93562-3 0  9998",
        "tle_line2": "2 34116  74.0406 200.9790 0012298 277.0963 244.0700 14.52886255883463"
      },
      "geometry": {
        "type": "Point",
        "coordinates": [
          -167.31208835509764,
          -23.2430862224668
        ]
      }
    },
    {
      "type": "Feature",
      "properties": {
        "norad_id": 34117,
        "name": "COSMOS 2251 DEB",
        "group": "cosmos-2251-debris",
        "lat": -40.73076523324139,
        "lon": -165.28128131250116,
        "alt_km": 795.7981836980516,
        "timestamp": "2025-12-03T17:47:51.111916+00:00",
        "meta_object_name": "COSMOS 2251 DEB",
        "meta_object_id": "1993-036KN",
        "meta_epoch": "2025-12-03T11:46:09.168096",
        "meta_mean_motion": 14.39951111,
        "meta_eccentricity": 0.005438,
        "meta_inclination": 74.0402,
        "meta_ra_of_asc_node": 0.9171,
        "meta_arg_of_pericenter": 80.0984,
        "meta_mean_anomaly": 280.6303,
        "meta_ephemeris_type": 0,
        "meta_classification_type": "U",
        "meta_norad_cat_id": 34117,
        "meta_element_set_no": 999,
        "meta_rev_at_epoch": 87990,
        "meta_bstar": 0.00088582,
        "meta_mean_motion_dot": 2.811e-05,
        "meta_mean_motion_ddot": 0,
        "tle_line1": "1 34117U 93036KN  25337.49038389  .00002811  00000+0  88582-3 0  9996",
        "tle_line2": "2 34117  74.0402   0.9171 0054380  80.0984 280.6303 14.39951111879902"
      },
      "geometry": {
        "type": "Point",
        "coordinates": [
          -165.28128131250116,
          -40.73076523324139
        ]
      }
    },
    {
      "type": "Feature",
      "properties": {
        "norad_id": 34118,
        "name": "COSMOS 2251 DEB",
        "group": "cosmos-2251-debris",
        "lat": -4.750572307027349,
        "lon": -93.86543054517541,
        "alt_km": 601.2966399798916,
        "timestamp": "2025-12-03T17:47:51.111927+00:00",
        "meta_object_name": "COSMOS 2251 DEB",
        "meta_object_id": "1993-036KP",
        "meta_epoch": "2025-12-03T05:38:41.418240",
        "meta_mean_motion": 14.93289774,
        "meta_eccentricity": 0.0060061,
        "meta_inclination": 73.9529,
        "meta_ra_of_asc_node": 268.5284,
        "meta_arg_of_pericenter": 101.0881,
        "meta_mean_anomaly": 53.749,
        "meta_ephemeris_type": 0,
        "meta_classification_type": "U",
        "meta_norad_cat_id": 34118,
        "meta_element_set_no": 999,
        "meta_rev_at_epoch": 89034,
        "meta_bstar": 0.0026457,
        "meta_mean_motion_dot": 0.00028783,
        "meta_mean_motion_ddot": 0,
        "tle_line1": "1 34118U 93036KP  25337.23520160  .00028783  00000+0  26457-2 0  9990",
        "tle_line2": "2 34118  73.9529 268.5284 0060061 101.0881  53.7490 14.93289774890347"
      },
      "geometry": {
        "type": "Point",
        "coordinates": [
          -93.86543054517541,
          -4.750572307027349
        ]
      }
    },
    {
      "type": "Feature",
      "properties": {
        "norad_id": 34120,
        "name": "COSMOS 2251 DEB",
        "group": "cosmos-2251-debris",
        "lat": -54.95609281755148,
        "lon": 75.96794347701429,
        "alt_km": 1037.0179674274423,
        "timestamp": "2025-12-03T17:47:51.111938+00:00",
        "meta_object_name": "COSMOS 2251 DEB",
        "meta_object_id": "1993-036KR",
        "meta_epoch": "2025-12-03T10:20:32.281152",
        "meta_mean_motion": 13.98666007,
        "meta_eccentricity": 0.0181577,
        "meta_inclination": 73.9919,
        "meta_ra_of_asc_node": 232.3436,
        "meta_arg_of_pericenter": 62.1363,
        "meta_mean_anomaly": 52.5871,
        "meta_ephemeris_type": 0,
        "meta_classification_type": "U",
        "meta_norad_cat_id": 34120,
        "meta_element_set_no": 999,
        "meta_rev_at_epoch": 85850,
        "meta_bstar": 0.00052966,
        "meta_mean_motion_dot": 8.53e-06,
        "meta_mean_motion_ddot": 0,
        "tle_line1": "1 34120U 93036KR  25337.43092918  .00000853  00000+0  52966-3 0  9993",
        "tle_line2": "2 34120  73.9919 232.3436 0181577  62.1363  52.5871 13.98666007858503"
      },
      "geometry": {
        "type": "Point",
        "coordinates": [
          75.96794347701429,
          -54.95609281755148
        ]
      }
    }
  ]
}